[{"OBJECT_NAME":"CHECKMATE 7","OBJECT_ID":"2023-050E","EPOCH":"2026-03-09T21:02:25.149408","MEAN_MOTION":13.8516674,"ECCENTRICITY":0.00065951,"INCLINATION":81.0032,"RA_OF_ASC_NODE":166.6398,"ARG_OF_PERICENTER":213.3356,"MEAN_ANOMALY":146.7386,"EPHEMERIS_TYPE":0,"CLASSIFICATION_TYPE":"U","NORAD_CAT_ID":56166,"ELEMENT_SET_NO":999,"REV_AT_EPOCH":14835,"BSTAR":0.00014609546,"MEAN_MOTION_DOT":1.77e-6,"MEAN_MOTION_DDOT":0},{"OBJECT_NAME":"COSMOS 514","OBJECT_ID":"1972-062A","EPOCH":"2026-03-09T22:39:40.925088","MEAN_MOTION":13.8204281,"ECCENTRICITY":0.00113658,"INCLINATION":82.9714,"RA_OF_ASC_NODE":10.2275,"ARG_OF_PERICENTER":71.0033,"MEAN_ANOMALY":357.4031,"EPHEMERIS_TYPE":0,"CLASSIFICATION_TYPE":"U","NORAD_CAT_ID":6148,"ELEMENT_SET_NO":999,"REV_AT_EPOCH":69983,"BSTAR":7.2503045e-5,"MEAN_MOTION_DOT":9.4e-7,"MEAN_MOTION_DDOT":0}]
